"{\n    \"CCSDS_OMM_VERS\": \"2.0\",\n    \"COMMENT\": \"GENERATED VIA SPACE-TRACK.ORG API\",\n    \"CREATION_DATE\": \"2025-08-31T02:26:50\",\n    \"ORIGINATOR\": \"18 SPCS\",\n    \"OBJECT_NAME\": \"BEIDOU 3 IGSO-2\",\n    \"OBJECT_ID\": \"2019-035A\",\n    \"CENTER_NAME\": \"EARTH\",\n    \"REF_FRAME\": \"TEME\",\n    \"TIME_SYSTEM\": \"UTC\",\n    \"MEAN_ELEMENT_THEORY\": \"SGP4\",\n    \"EPOCH\": \"2025-08-30T15:49:59.675808\",\n    \"MEAN_MOTION\": \"1.0024795939\",\n    \"ECCENTRICITY\": \"0.0035004264\",\n    \"INCLINATION\": \"55.215291\",\n    \"RA_OF_ASC_NODE\": \"161.41813\",\n    \"ARG_OF_PERICENTER\": \"209.06355\",\n    \"MEAN_ANOMALY\": \"322.19836\",\n    \"EPHEMERIS_TYPE\": \"0\",\n    \"CLASSIFICATION_TYPE\": \"U\",\n    \"NORAD_CAT_ID\": \"44337\",\n    \"ELEMENT_SET_NO\": \"999\",\n    \"REV_AT_EPOCH\": \"2275\",\n    \"BSTAR\": \"0\",\n    \"MEAN_MOTION_DOT\": \"-0.000001423404\",\n    \"MEAN_MOTION_DDOT\": \"0\",\n    \"TLE_LINE0\": \"0 BEIDOU 3 IGSO-2\",\n    \"TLE_LINE1\": \"1 44337U 19035A   25242.65971847 -.00000142  00000-0  00000-0 0  9999\",\n    \"TLE_LINE2\": \"2 44337  55.2153 161.4181 0035004 209.0636 322.1984  1.00247959 22756\",\n    \"SEMIMAJOR_AXIS\": \"42171.412\",\n    \"PERIOD\": \"1436.438\",\n    \"APOAPSIS\": \"35940.895\",\n    \"PERIAPSIS\": \"35645.660\",\n    \"OBJECT_TYPE\": \"PAYLOAD\",\n    \"DECAYED\": \"0\"\n}"